OBJECT_NAME,OBJECT_ID,EPOCH,MEAN_MOTION,ECCENTRICITY,INCLINATION,RA_OF_ASC_NODE,ARG_OF_PERICENTER,MEAN_ANOMALY,EPHEMERIS_TYPE,CLASSIFICATION_TYPE,NORAD_CAT_ID,ELEMENT_SET_NO,REV_AT_EPOCH,BSTAR,MEAN_MOTION_DOT,MEAN_MOTION_DDOT
COSMOS 2251 DEB,1993-036AGF,2024-12-31T04:12:17.235936,13.65418431,0.0355891,73.9805,320.0204,299.3464,57.2537,0,U,35018,999,78452,5.11E-03,6.40E-05,0
COSMOS 2251 DEB,1993-036AGH,2024-12-29T02:59:36.837888,14.61859478,0.0092902,74.0478,146.2652,350.3166,9.6206,0,U,35020,999,83142,4.01E-04,2.10E-05,0
COSMOS 2251 DEB,1993-036AGK,2024-12-31T10:52:56.381376,14.5852165,0.0050308,74.0269,262.9425,189.2697,170.7545,0,U,35022,999,54090,1.32E-03,6.22E-05,0
COSMOS 2251 DEB,1993-036AGL,2024-12-31T22:33:50.333760,14.81286799,0.0044263,74.0415,182.4132,354.5401,155.747,0,U,35023,999,83135,4.10E-03,3.26E-04,0
COSMOS 2251 DEB,1993-036AGN,2024-12-31T18:52:58.503936,14.69856862,0.0088783,73.9392,19.4097,11.217,349.095,0,U,35025,999,83554,1.35E-03,8.56E-05,0
COSMOS 2251 DEB,1993-036AGP,2024-12-31T11:18:27.995040,14.53302106,0.0082824,74.0462,252.324,94.0977,78.8201,0,U,35026,999,83112,2.01E-04,8.42E-06,0
COSMOS 2251 DEB,1993-036AGR,2024-12-29T21:54:47.077632,14.56084603,0.0082925,74.0367,210.8165,72.8357,349.3763,0,U,35028,999,83222,2.13E-04,9.54E-06,0
COSMOS 2251 DEB,1993-036AGU,2024-12-31T18:05:35.943936,14.37722503,0.0019042,74.0368,176.438,355.5844,4.5139,0,U,35031,999,60310,5.71E-04,1.70E-05,0
COSMOS 2251 DEB,1993-036AGV,2024-12-31T07:30:15.986592,14.54409549,0.0074985,73.8546,312.3835,232.7119,280.3584,0,U,35032,999,82629,2.63E-03,1.16E-04,0
COSMOS 2251 DEB,1993-036AGW,2024-12-30T13:33:54.425664,14.48262736,0.0017212,74.0284,108.5917,301.0157,58.9312,0,U,35033,999,82516,2.59E-03,9.69E-05,0
COSMOS 2251 DEB,1993-036AHA,2024-12-31T16:00:13.152096,14.9539201,0.0030695,73.9886,144.7192,32.6616,327.6457,0,U,35037,999,61946,5.94E-03,6.68E-04,0
COSMOS 2251 DEB,1993-036AHB,2024-12-31T14:08:30.921792,14.21859639,0.0112318,74.1098,303.0107,16.5257,157.7858,0,U,35038,999,80642,6.59E-03,1.55E-04,0
COSMOS 2251 DEB,1993-036AHG,2024-12-31T17:01:02.002944,14.56628142,0.0141055,73.9596,356.9041,283.778,74.7719,0,U,35043,999,62344,1.11E-02,5.73E-04,0
COSMOS 2251 DEB,1993-036AHJ,2024-12-30T13:53:44.011968,13.9928386,0.0185867,73.7213,305.2886,239.7368,118.5255,0,U,35045,999,79785,2.21E-03,3.69E-05,0
COSMOS 2251 DEB,1993-036AHP,2024-12-31T03:20:44.526336,14.404555,0.0018837,74.0366,165.8406,338.207,21.8281,0,U,35060,999,82249,1.09E-03,3.45E-05,0
COSMOS 2251 DEB,1993-036AHQ,2024-12-30T16:58:56.589888,14.6396398,0.0042287,74.047,253.9486,97.7952,262.802,0,U,35061,999,83489,2.06E-03,1.09E-04,0
COSMOS 2251 DEB,1993-036AHR,2024-12-26T18:09:14.817600,14.19101423,0.0129481,74.0852,0.8267,88.439,273.1581,0,U,35062,999,80512,3.86E-03,8.76E-05,0
COSMOS 2251 DEB,1993-036AHU,2024-12-31T14:19:02.070336,14.44114225,0.0021229,74.0228,119.7344,328.9295,31.0605,0,U,35065,999,63351,1.70E-03,5.83E-05,0
COSMOS 2251 DEB,1993-036AJA,2024-12-31T04:04:09.380064,14.94007045,0.0082152,73.9357,161.2966,141.2733,219.4381,0,U,35071,999,84526,2.19E-03,2.51E-04,0
COSMOS 2251 DEB,1993-036AJC,2024-12-31T02:51:04.749408,14.79300948,0.002041,74.007,304.9185,163.5918,196.5923,0,U,35073,999,62318,5.50E-03,4.13E-04,0
COSMOS 2251 DEB,1993-036AJJ,2024-12-31T10:15:38.234304,14.84340313,0.0029344,74.023,60.3553,250.6378,109.1627,0,U,35280,999,82321,6.93E-03,5.91E-04,0
COSMOS 2251 DEB,1993-036AJK,2024-12-31T07:07:12.692352,15.58652803,0.0011699,73.9562,214.0405,138.7592,221.4511,0,U,35281,999,83095,1.65E-02,1.41E-02,0
COSMOS 2251 DEB,1993-036AJN,2024-12-29T12:06:42.046848,14.37753481,0.0016756,74.0473,185.351,349.5267,44.0597,0,U,35284,999,60520,4.20E-04,1.24E-05,0
COSMOS 2251 DEB,1993-036AJR,2024-12-31T21:02:20.154624,14.35951931,0.0017795,74.0281,191.4864,12.9832,51.8049,0,U,35287,999,81927,4.07E-04,1.16E-05,0
COSMOS 2251 DEB,1993-036AJS,2024-12-31T12:22:45.095808,14.59736255,0.0044999,73.9531,322.3839,272.0003,87.6008,0,U,35288,999,82815,3.08E-03,1.49E-04,0
COSMOS 2251 DEB,1993-036AJU,2024-12-30T18:38:35.119968,14.68003395,0.0009915,74.0092,18.0545,252.6253,107.3833,0,U,35290,999,83027,5.63E-03,3.24E-04,0
COSMOS 2251 DEB,1993-036AKA,2024-12-30T06:13:17.802048,14.81656825,0.000579,74.0383,0.6084,286.535,73.5191,0,U,35432,999,82396,9.41E-03,7.48E-04,0
COSMOS 2251 DEB,1993-036AKB,2024-12-29T01:17:20.203584,14.33996628,0.002579,74.0384,256.967,37.839,25.3033,0,U,35433,999,81581,4.43E-04,1.21E-05,0
COSMOS 2251 DEB,1993-036AKC,2024-12-31T14:16:25.101408,14.24117884,0.009021,74.0425,117.6683,272.5526,86.5296,0,U,35434,999,81187,2.60E-03,6.23E-05,0
COSMOS 2251 DEB,1993-036AKD,2024-12-30T22:21:33.638976,14.66138218,0.0015957,74.0171,60.0512,256.9593,276.7579,0,U,35435,999,82508,5.62E-03,3.11E-04,0
