COSMOS 2251 DEB         
1 35018U 93036AGF 24366.17519949  .00006399  00000+0  51087-2 0  9993
2 35018  73.9805 320.0204 0355891 299.3464  57.2537 13.65418431784521
COSMOS 2251 DEB         
1 35020U 93036AGH 24364.12473192  .00002099  00000+0  40097-3 0  9991
2 35020  74.0478 146.2652 0092902 350.3166   9.6206 14.61859478831428
COSMOS 2251 DEB         
1 35022U 93036AGK 24366.45343034  .00006215  00000+0  13195-2 0  9994
2 35022  74.0269 262.9425 0050308 189.2697 170.7545 14.58521650540904
COSMOS 2251 DEB         
1 35023U 93036AGL 24366.94016590  .00032617  00000+0  40961-2 0  9999
2 35023  74.0415 182.4132 0044263 354.5401 155.7470 14.81286799831352
COSMOS 2251 DEB         
1 35025U 93036AGN 24366.78678824  .00008555  00000+0  13506-2 0  9996
2 35025  73.9392  19.4097 0088783  11.2170 349.0950 14.69856862835546
COSMOS 2251 DEB         
1 35026U 93036AGP 24366.47115735  .00000842  00000+0  20057-3 0  9991
2 35026  74.0462 252.3240 0082824  94.0977  78.8201 14.53302106831125
COSMOS 2251 DEB         
1 35028U 93036AGR 24364.91304488  .00000954  00000+0  21328-3 0  9991
2 35028  74.0367 210.8165 0082925  72.8357 349.3763 14.56084603832227
COSMOS 2251 DEB         
1 35031U 93036AGU 24366.75388824  .00001695  00000+0  57102-3 0  9997
2 35031  74.0368 176.4380 0019042 355.5844   4.5139 14.37722503603107
COSMOS 2251 DEB         
1 35032U 93036AGV 24366.31268503  .00011608  00000+0  26317-2 0  9999
2 35032  73.8546 312.3835 0074985 232.7119 280.3584 14.54409549826293
COSMOS 2251 DEB         
1 35033U 93036AGW 24365.56521326  .00009692  00000+0  25941-2 0  9993
2 35033  74.0284 108.5917 0017212 301.0157  58.9312 14.48262736825165
COSMOS 2251 DEB         
1 35037U 93036AHA 24366.66681889  .00066791  00000+0  59371-2 0  9997
2 35037  73.9886 144.7192 0030695  32.6616 327.6457 14.95392010619460
COSMOS 2251 DEB         
1 35038U 93036AHB 24366.58924678  .00015493  00000+0  65903-2 0  9996
2 35038  74.1098 303.0107 0112318  16.5257 157.7858 14.21859639806425
COSMOS 2251 DEB         
1 35043U 93036AHG 24366.70905096  .00057286  00000+0  11134-1 0  9991
2 35043  73.9596 356.9041 0141055 283.7780  74.7719 14.56628142623448
COSMOS 2251 DEB         
1 35045U 93036AHJ 24365.57898162  .00003692  00000+0  22067-2 0  9992
2 35045  73.7213 305.2886 0185867 239.7368 118.5255 13.99283860797859
COSMOS 2251 DEB         
1 35060U 93036AHP 24366.13940424  .00003449  00000+0  10904-2 0  9998
2 35060  74.0366 165.8406 0018837 338.2070  21.8281 14.40455500822497
COSMOS 2251 DEB         
1 35061U 93036AHQ 24365.70759942  .00010917  00000+0  20603-2 0  9999
2 35061  74.0470 253.9486 0042287  97.7952 262.8020 14.63963980834899
COSMOS 2251 DEB         
1 35062U 93036AHR 24361.75642150  .00008763  00000+0  38614-2 0  9990
2 35062  74.0852   0.8267 0129481  88.4390 273.1581 14.19101423805123
COSMOS 2251 DEB         
1 35065U 93036AHU 24366.59655174  .00005826  00000+0  17023-2 0  9998
2 35065  74.0228 119.7344 0021229 328.9295  31.0605 14.44114225633518
COSMOS 2251 DEB         
1 35071U 93036AJA 24366.16955301  .00025065  00000+0  21945-2 0  9998
2 35071  73.9357 161.2966 0082152 141.2733 219.4381 14.94007045845269
COSMOS 2251 DEB         
1 35073U 93036AJC 24366.11880497  .00041290  00000+0  55000-2 0  9995
2 35073  74.0070 304.9185 0020410 163.5918 196.5923 14.79300948623188
COSMOS 2251 DEB         
1 35280U 93036AJJ 24366.42752586  .00059074  00000+0  69278-2 0  9997
2 35280  74.0230  60.3553 0029344 250.6378 109.1627 14.84340313823214
COSMOS 2251 DEB         
1 35281U 93036AJK 24366.29667468  .01411321  00000+0  16459-1 0  9997
2 35281  73.9562 214.0405 0011699 138.7592 221.4511 15.58652803830954
COSMOS 2251 DEB         
1 35284U 93036AJN 24364.50465332  .00001239  00000+0  41965-3 0  9992
2 35284  74.0473 185.3510 0016756 349.5267  44.0597 14.37753481605208
COSMOS 2251 DEB         
1 35287U 93036AJR 24366.87662216  .00001157  00000+0  40703-3 0  9995
2 35287  74.0281 191.4864 0017795  12.9832  51.8049 14.35951931819271
COSMOS 2251 DEB         
1 35288U 93036AJS 24366.51579972  .00014919  00000+0  30824-2 0  9995
2 35288  73.9531 322.3839 0044999 272.0003  87.6008 14.59736255828155
COSMOS 2251 DEB         
1 35290U 93036AJU 24365.77679537  .00032400  00000+0  56259-2 0  9998
2 35290  74.0092  18.0545 0009915 252.6253 107.3833 14.68003395830279
COSMOS 2251 DEB         
1 35432U 93036AKA 24365.25923382  .00074846  00000+0  94060-2 0  9991
2 35432  74.0383   0.6084 0005790 286.5350  73.5191 14.81656825823962
COSMOS 2251 DEB         
1 35433U 93036AKB 24364.05370606  .00001214  00000+0  44261-3 0  9992
2 35433  74.0384 256.9670 0025790  37.8390  25.3033 14.33996628815814
COSMOS 2251 DEB         
1 35434U 93036AKC 24366.59473497  .00006228  00000+0  26037-2 0  9996
2 35434  74.0425 117.6683 0090210 272.5526  86.5296 14.24117884811877
COSMOS 2251 DEB         
1 35435U 93036AKD 24365.93163934  .00031091  00000+0  56247-2 0  9998
2 35435  74.0171  60.0512 0015957 256.9593 276.7579 14.66138218825088
